*******************************************************************************
Ephemeris / WWW_USER Mon Mar 24 10:57:33 2025 Pasadena, USA      / Horizons    
*******************************************************************************
Target body name: (2018 TC)                       {source: JPL#10}
Center body name: Earth (399)                     {source: DE441}
Center-site name: Mauna Kea
*******************************************************************************
Start time      : A.D. 2018-Aug-02 05:08:00.0000 UT      
Stop  time      : A.D. 2018-Aug-02 15:48:00.0000 UT      
Step-size       : 1 minutes
*******************************************************************************
Target pole/equ : undefined
Target radii    : undefined                                                    
Center geodetic : 204.5278, 19.8260847, 4.21024   {E-lon(deg),Lat(deg),Alt(km)}
Center cylindric: 204.5278, 6006.35451, 2151.0229 {E-lon(deg),Dxy(km),Dz(km)}
Center pole/equ : ITRF93                          {East-longitude positive}
Center radii    : 6378.137, 6378.137, 6356.752 km {Equator_a, b, pole_c}       
Target primary  : Sun
Vis. interferer : MOON (R_eq= 1737.400) km        {source: DE441}
Rel. light bend : Sun                             {source: DE441}
Rel. lght bnd GM: 1.3271E+11 km^3/s^2                                          
Small-body perts: Yes                             {source: SB441-N16}
Atmos refraction: NO (AIRLESS)
RA format       : HMS
Time format     : CAL 
Calendar mode   : Mixed Julian/Gregorian
RTS-only print  : NO       
EOP file        : eop.250321.p250617                                           
EOP coverage    : DATA-BASED 1962-JAN-20 TO 2025-MAR-21. PREDICTS-> 2025-JUN-16
Units conversion: 1 au= 149597870.700 km, c= 299792.458 km/s, 1 day= 86400.0 s 
Table cut-offs 1: Elevation (-90.0deg=NO ),Airmass (>38.000=NO), Daylight (YES)
Table cut-offs 2: Solar elongation (  0.0,180.0=NO ),Local Hour Angle( 0.0=NO )
Table cut-offs 3: RA/DEC angular rate (     0.0=NO )                           
*******************************************************************************
Initial IAU76/J2000 heliocentric ecliptic osculating elements (au, days, deg.):
  EPOCH=  2458399.5 ! 2018-Oct-08.00 (TDB)         Residual RMS= .20211        
   EC= .2253304451868516   QR= .9525668516843322   TP= 2458354.2554697809      
   OM= 188.9146441926015   W=  135.2493409557404   IN= 3.631837316097226       
  Equivalent ICRF heliocentric cartesian coordinates (au, au/d):
   X= 9.874490534016482E-01  Y= 2.414303737329446E-01  Z= 9.746991415829437E-02
  VX=-1.955204385424240E-03 VY= 1.722364762632024E-02 VZ= 6.197883797821973E-03
Asteroid physical parameters (km, seconds, rotational period in hours):        
   GM= n.a.                RAD= n.a.               ROTPER= n.a.                
   H= 26.6                 G= .150                 B-V= n.a.                   
                           ALBEDO= n.a.            STYP= n.a.                  
*******************************************************************************
 Date__(UT)__HR:MN     R.A._________(ICRF)_________DEC
******************************************************
$$SOE
 2018-Aug-02 05:08 C   13 24 42.006788 +05 37 23.23074
 2018-Aug-02 05:09 C   13 24 42.064067 +05 37 23.04804
 2018-Aug-02 05:10 C   13 24 42.121374 +05 37 22.86528
 2018-Aug-02 05:11 C   13 24 42.178709 +05 37 22.68246
 2018-Aug-02 05:12 C   13 24 42.236070 +05 37 22.49957
 2018-Aug-02 05:13 C   13 24 42.293460 +05 37 22.31662
 2018-Aug-02 05:14 C   13 24 42.350877 +05 37 22.13361
 2018-Aug-02 05:15 C   13 24 42.408322 +05 37 21.95054
 2018-Aug-02 05:16 C   13 24 42.465796 +05 37 21.76741
 2018-Aug-02 05:17 C   13 24 42.523297 +05 37 21.58421
 2018-Aug-02 05:18 C   13 24 42.580828 +05 37 21.40096
 2018-Aug-02 05:19 C   13 24 42.638388 +05 37 21.21764
 2018-Aug-02 05:20 C   13 24 42.695976 +05 37 21.03426
 2018-Aug-02 05:21 C   13 24 42.753594 +05 37 20.85082
 2018-Aug-02 05:22 N   13 24 42.811241 +05 37 20.66732
 2018-Aug-02 05:23 N   13 24 42.868918 +05 37 20.48376
 2018-Aug-02 05:24 N   13 24 42.926624 +05 37 20.30014
 2018-Aug-02 05:25 N   13 24 42.984361 +05 37 20.11646
 2018-Aug-02 05:26 N   13 24 43.042127 +05 37 19.93272
 2018-Aug-02 05:27 N   13 24 43.099925 +05 37 19.74891
 2018-Aug-02 05:28 N   13 24 43.157752 +05 37 19.56505
 2018-Aug-02 05:29 N   13 24 43.215611 +05 37 19.38113
 2018-Aug-02 05:30 N   13 24 43.273500 +05 37 19.19716
 2018-Aug-02 05:31 N   13 24 43.331421 +05 37 19.01312
 2018-Aug-02 05:32 N   13 24 43.389373 +05 37 18.82902
 2018-Aug-02 05:33 N   13 24 43.447356 +05 37 18.64487
 2018-Aug-02 05:34 N   13 24 43.505371 +05 37 18.46065
 2018-Aug-02 05:35 N   13 24 43.563418 +05 37 18.27638
 2018-Aug-02 05:36 N   13 24 43.621497 +05 37 18.09205
 2018-Aug-02 05:37 N   13 24 43.679608 +05 37 17.90767
 2018-Aug-02 05:38 N   13 24 43.737752 +05 37 17.72322
 2018-Aug-02 05:39 N   13 24 43.795929 +05 37 17.53872
 2018-Aug-02 05:40 N   13 24 43.854138 +05 37 17.35416
 2018-Aug-02 05:41 N   13 24 43.912380 +05 37 17.16955
 2018-Aug-02 05:42 N   13 24 43.970655 +05 37 16.98488
 2018-Aug-02 05:43 N   13 24 44.028964 +05 37 16.80015
 2018-Aug-02 05:44 N   13 24 44.087306 +05 37 16.61536
 2018-Aug-02 05:45 N   13 24 44.145682 +05 37 16.43052
 2018-Aug-02 05:46 N   13 24 44.204092 +05 37 16.24562
 2018-Aug-02 05:47 N   13 24 44.262536 +05 37 16.06067
 2018-Aug-02 05:48 N   13 24 44.321014 +05 37 15.87566
 2018-Aug-02 05:49 N   13 24 44.379526 +05 37 15.69060
 2018-Aug-02 05:50 A   13 24 44.438073 +05 37 15.50548
 2018-Aug-02 05:51 A   13 24 44.496655 +05 37 15.32031
 2018-Aug-02 05:52 A   13 24 44.555272 +05 37 15.13508
 2018-Aug-02 05:53 A   13 24 44.613924 +05 37 14.94980
 2018-Aug-02 05:54 A   13 24 44.672611 +05 37 14.76446
 2018-Aug-02 05:55 A   13 24 44.731334 +05 37 14.57907
 2018-Aug-02 05:56 A   13 24 44.790092 +05 37 14.39363
 2018-Aug-02 05:57 A   13 24 44.848887 +05 37 14.20813
 2018-Aug-02 05:58 A   13 24 44.907717 +05 37 14.02258
 2018-Aug-02 05:59 A   13 24 44.966583 +05 37 13.83698
 2018-Aug-02 06:00 A   13 24 45.025486 +05 37 13.65133
 2018-Aug-02 06:01 A   13 24 45.084425 +05 37 13.46562
 2018-Aug-02 06:02 A   13 24 45.143401 +05 37 13.27986
 2018-Aug-02 06:03 A   13 24 45.202413 +05 37 13.09404
 2018-Aug-02 06:04 A   13 24 45.261463 +05 37 12.90818
 2018-Aug-02 06:05 A   13 24 45.320550 +05 37 12.72226
 2018-Aug-02 06:06 A   13 24 45.379674 +05 37 12.53630
 2018-Aug-02 06:07 A   13 24 45.438835 +05 37 12.35028
 2018-Aug-02 06:08 A   13 24 45.498035 +05 37 12.16421
 2018-Aug-02 06:09 A   13 24 45.557272 +05 37 11.97809
 2018-Aug-02 06:10 A   13 24 45.616547 +05 37 11.79192
 2018-Aug-02 06:11 A   13 24 45.675860 +05 37 11.60570
 2018-Aug-02 06:12 A   13 24 45.735211 +05 37 11.41943
 2018-Aug-02 06:13 A   13 24 45.794601 +05 37 11.23311
 2018-Aug-02 06:14 A   13 24 45.854030 +05 37 11.04674
 2018-Aug-02 06:15 A   13 24 45.913497 +05 37 10.86032
 2018-Aug-02 06:16 A   13 24 45.973003 +05 37 10.67385
 2018-Aug-02 06:17 A   13 24 46.032549 +05 37 10.48734
 2018-Aug-02 06:18     13 24 46.092133 +05 37 10.30077
 2018-Aug-02 06:19     13 24 46.151757 +05 37 10.11416
 2018-Aug-02 06:20     13 24 46.211421 +05 37 09.92750
 2018-Aug-02 06:21     13 24 46.271124 +05 37 09.74079
 2018-Aug-02 06:22     13 24 46.330867 +05 37 09.55403
 2018-Aug-02 06:23     13 24 46.390651 +05 37 09.36723
 2018-Aug-02 06:24     13 24 46.450474 +05 37 09.18038
 2018-Aug-02 06:25     13 24 46.510338 +05 37 08.99348
 2018-Aug-02 06:26     13 24 46.570242 +05 37 08.80654
 2018-Aug-02 06:27     13 24 46.630187 +05 37 08.61955
 2018-Aug-02 06:28     13 24 46.690172 +05 37 08.43251
 2018-Aug-02 06:29     13 24 46.750199 +05 37 08.24543
 2018-Aug-02 06:30     13 24 46.810266 +05 37 08.05830
 2018-Aug-02 06:31     13 24 46.870375 +05 37 07.87113
 2018-Aug-02 06:32     13 24 46.930525 +05 37 07.68392
 2018-Aug-02 06:33     13 24 46.990717 +05 37 07.49665
 2018-Aug-02 06:34     13 24 47.050950 +05 37 07.30935
 2018-Aug-02 06:35     13 24 47.111225 +05 37 07.12200
 2018-Aug-02 06:36     13 24 47.171542 +05 37 06.93460
 2018-Aug-02 06:37     13 24 47.231901 +05 37 06.74717
 2018-Aug-02 06:38     13 24 47.292303 +05 37 06.55969
 2018-Aug-02 06:39     13 24 47.352747 +05 37 06.37216
 2018-Aug-02 06:40     13 24 47.413233 +05 37 06.18460
 2018-Aug-02 06:41     13 24 47.473762 +05 37 05.99699
 2018-Aug-02 06:42     13 24 47.534333 +05 37 05.80934
 2018-Aug-02 06:43     13 24 47.594948 +05 37 05.62164
 2018-Aug-02 06:44     13 24 47.655605 +05 37 05.43391
 2018-Aug-02 06:45     13 24 47.716306 +05 37 05.24613
 2018-Aug-02 06:46     13 24 47.777050 +05 37 05.05831
 2018-Aug-02 06:47     13 24 47.837838 +05 37 04.87045
 2018-Aug-02 06:48     13 24 47.898669 +05 37 04.68256
 2018-Aug-02 06:49     13 24 47.959544 +05 37 04.49462
 2018-Aug-02 06:50     13 24 48.020462 +05 37 04.30664
 2018-Aug-02 06:51     13 24 48.081425 +05 37 04.11862
 2018-Aug-02 06:52     13 24 48.142432 +05 37 03.93056
 2018-Aug-02 06:53     13 24 48.203483 +05 37 03.74246
 2018-Aug-02 06:54     13 24 48.264578 +05 37 03.55432
 2018-Aug-02 06:55     13 24 48.325718 +05 37 03.36615
 2018-Aug-02 06:56     13 24 48.386902 +05 37 03.17793
 2018-Aug-02 06:57     13 24 48.448131 +05 37 02.98968
 2018-Aug-02 06:58     13 24 48.509406 +05 37 02.80139
 2018-Aug-02 06:59     13 24 48.570725 +05 37 02.61306
 2018-Aug-02 07:00     13 24 48.632089 +05 37 02.42470
 2018-Aug-02 07:01     13 24 48.693498 +05 37 02.23630
 2018-Aug-02 07:02     13 24 48.754953 +05 37 02.04786
 2018-Aug-02 07:03     13 24 48.816453 +05 37 01.85938
 2018-Aug-02 07:04     13 24 48.877999 +05 37 01.67087
 2018-Aug-02 07:05     13 24 48.939590 +05 37 01.48232
 2018-Aug-02 07:06     13 24 49.001228 +05 37 01.29374
 2018-Aug-02 07:07     13 24 49.062911 +05 37 01.10512
 2018-Aug-02 07:08     13 24 49.124641 +05 37 00.91647
 2018-Aug-02 07:09     13 24 49.186416 +05 37 00.72778
 2018-Aug-02 07:10     13 24 49.248238 +05 37 00.53906
